RESOURCESAT-2A          
1 41877U 16074A   22207.51589821  .00000111  00000+0  70488-4 0  9990
2 41877  98.7170 282.2873 0001197 163.7025 196.4193 14.21631523292313
CARTOSAT-2D             
1 41948U 17008A   22206.69467749  .00003216  00000+0  15599-3 0  9999
2 41948  97.4631 265.9010 0006458 179.0249 181.0992 15.19200828301602
SENTINEL-2B             
1 42063U 17013A   22207.38938891  .00000078  00000+0  46257-4 0  9991
2 42063  98.5689 281.5877 0001476  95.3865 264.7487 14.30818037281334
ZHUHAI-1 02 (CAS-4B)    
1 42759U 17034B   22207.23088315  .00003741  00000+0  22578-3 0  9996
2 42759  43.0166 118.9208 0008763 182.1511 314.6941 15.12150217282220
NUSAT-3 (MILANESAT)     
1 42760U 17034C   22207.22487610  .00003641  00000+0  21539-3 0  9993
2 42760  43.0147 113.5547 0009336 206.2437 289.0189 15.12935616282290
ZHUHAI-1 01 (CAS-4A)    
1 42761U 17034D   22207.26537763  .00003656  00000+0  22044-3 0  9991
2 42761  43.0172 117.4863 0008561 182.6939 319.4160 15.12235420282233
CARTOSAT-2E             
1 42767U 17036C   22207.44795233  .00002614  00000+0  12738-3 0  9999
2 42767  97.4519 267.4394 0006395 237.8376 178.6303 15.19210556282282
FORMOSAT-5              
1 42920U 17049A   22206.70812536  .00000045  00000+0  22425-4 0  9999
2 42920  98.2390 283.4965 0011763 130.2542 229.9692 14.50925434260411
SENTINEL-5P             
1 42969U 17064A   22206.81599085  .00000001  00000+0  21308-4 0  9993
2 42969  98.7323 146.0476 0001238  84.1050 276.0267 14.19543653247761
SKYSAT-C11              
1 42987U 17068A   22206.79850378  .00005690  00000+0  15565-3 0  9995
2 42987  97.2943 325.4545 0000188 324.9169  35.2063 15.37755682264285
SKYSAT-C10              
1 42988U 17068B   22206.89669281  .00006708  00000+0  18289-3 0  9995
2 42988  97.2994 325.8165 0001326 159.0612 201.0688 15.37791381264326
SKYSAT-C9               
1 42989U 17068C   22207.14481117  .00006949  00000+0  18944-3 0  9990
2 42989  97.2931 325.1864 0001586 111.4846 248.6568 15.37776951264551
SKYSAT-C8               
1 42990U 17068D   22207.13802754  .00006986  00000+0  19027-3 0  9999
2 42990  97.3003 326.4767 0002685 212.6877 147.4202 15.37804652264381
SKYSAT-C7               
1 42991U 17068E   22207.44083651  .00006914  00000+0  18855-3 0  9990
2 42991  97.3009 326.8547 0000834 253.0650 107.0504 15.37772958264436
SKYSAT-C6               
1 42992U 17068F   22206.58525445  .00006570  00000+0  17935-3 0  9993
2 42992  97.3027 326.3967 0000340 188.1713 171.9526 15.37761204264311
CARTOSAT-2F             
1 43111U 18004A   22207.42149021  .00002781  00000+0  13534-3 0  9995
2 43111  97.4472 267.2953 0002501 253.6712 201.2895 15.19210740251468
NUSAT-4 (ADA)           
1 43195U 18015D   22207.46885086  .00009525  00000+0  31704-3 0  9993
2 43195  97.5383 349.1257 0013145 269.4177 176.2069 15.31280472249201
NUSAT-5 (MARYAM)        
1 43204U 18015K   22207.51611426  .00009669  00000+0  31793-3 0  9992
2 43204  97.5390 349.7780 0012493 270.2065 154.6986 15.31677977248845
GAOFEN 1-02             
1 43259U 18031A   22207.41624199  .00000616  00000+0  95492-4 0  9990
2 43259  97.8986 283.1648 0002392 223.4107 136.6905 14.76545391232898
GAOFEN 1-03             
1 43260U 18031B   22207.46246000  .00000606  00000+0  94124-4 0  9998
2 43260  97.8983 283.1747 0004855 326.4726  33.6172 14.76536690232898
GAOFEN 1-04             
1 43262U 18031D   22207.43771693  .00000440  00000+0  70325-4 0  9991
2 43262  97.8989 283.1892 0003437 268.1836  91.8981 14.76524394232887
SENTINEL-3B             
1 43437U 18039A   22207.16584619  .00000046  00000+0  37214-4 0  9995
2 43437  98.6269 273.9306 0001573 103.8419 256.2936 14.26737735221356
GAOFEN 5-01             
1 43461U 18043A   22206.78531620  .00000162  00000+0  45267-4 0  9994
2 43461  98.2708 147.0975 0002340 140.1030 220.0341 14.58003310224246
GAOFEN 6                
1 43484U 18048A   22207.53758481  .00000568  00000+0  88816-4 0  9991
2 43484  97.9287 287.1464 0010325  81.3683 278.8698 14.76489716223603
GAOFEN 11-1             
1 43585U 18063A   22207.42868707  .00004301  00000+0  18232-3 0  9994
2 43585  97.3179 282.5869 0016054  38.1708  29.2133 15.23540542222328
AEOLUS                  
1 43600U 18066A   22207.53319499  .00069465  00000+0  27024-3 0  9997
2 43600  96.7003 212.7581 0009249 103.8003 256.4300 15.86872326227329
ICESAT-2                
1 43613U 18070A   22207.15064458  .00005415  00000+0  19657-3 0  9994
2 43613  92.0048 268.6284 0004045 152.7170 207.4293 15.28283950215282
HYSIS                   
1 43719U 18096A   22207.48092204  .00000861  00000+0  12454-3 0  9993
2 43719  97.9559 273.1113 0003415  75.2117 284.9470 14.78642868197324
KAZSTSAT                
1 43783U 18099AB  22207.14840016  .00000369  00000+0  39734-4 0  9996
2 43783  97.6281 271.3905 0008996 132.8449 227.3529 14.94020598198583
SAUDISAT 5A             
1 43831U 18102A   22207.47217378  .00001564  00000+0  10173-3 0  9993
2 43831  97.4954 279.7614 0015310  49.9687  45.1642 15.09330792200067
SAUDISAT 5B             
1 43833U 18102C   22207.48424536  .00002007  00000+0  12783-3 0  9994
2 43833  97.4975 280.7444 0016169  55.0560  40.6679 15.09777833200113
GAOFEN 10R              
1 44622U 19066A   22207.47796499  .00000897  00000+0  12300-3 0  9990
2 44622  97.8931 146.1637 0000549 206.8254 153.2917 14.80844321151785
CARTOSAT-3              
1 44804U 19081A   22207.43321844  .00002990  00000+0  14426-3 0  9990
2 44804  97.3947 268.2131 0015100  82.4711  17.2737 15.19357404147552
GAOFEN 12-1             
1 44819U 19082A   22207.47325915  .00000273  00000+0  42558-4 0  9994
2 44819  97.8601 227.0561 0001670  83.8017 276.3386 14.80251924143710
CSG-1                   
1 44873U 19092A   22207.48196559  .00000349  00000+0  50365-4 0  9995
2 44873  97.8888  30.5826 0001389  87.8940 272.2440 14.82163013140888
NUSAT-7 (SOPHIE)        
1 45017U 20003B   22207.47302294  .00010096  00000+0  29255-3 0  9997
2 45017  97.2134 268.5000 0011146 211.1579 206.3439 15.35687989141212
NUSAT-8 (MARIE)         
1 45018U 20003C   22207.46851918  .00012458  00000+0  32779-3 0  9998
2 45018  97.2267 270.4239 0009647 211.3497 206.7708 15.38651437141260
NUSAT-6 (HYPATIA)       
1 46272U 20061A   22207.20847164  .00006268  00000+0  25095-3 0  9990
2 46272  97.3280 277.3542 0005325 304.0495  56.0235 15.25398238105139
NEMO-HD                 
1 46277U 20061F   22207.49637120  .00002395  00000+0  12205-3 0  9991
2 46277  97.3902 277.2100 0002895  67.5225  27.7645 15.17711147104784
NUSAT-12 (DOROTHY)      
1 46827U 20079A   22207.45307036  .00012791  00000+0  33927-3 0  9992
2 46827  97.1963 276.7529 0009009 150.1959 265.4162 15.38401045 96103
NUSAT-9 (ALICE)         
1 46828U 20079B   22207.44222428  .00013303  00000+0  34805-3 0  9999
2 46828  97.1839 276.3557 0003129 166.6918 250.0335 15.38849782 96147
NUSAT-11 (CORA)         
1 46829U 20079C   22207.44413373  .00013145  00000+0  34261-3 0  9991
2 46829  97.1889 276.6814 0006908 160.1809 258.4546 15.38951772 96136
NUSAT-15 (KATHERINE)    
1 46830U 20079D   22207.43495549  .00013043  00000+0  34115-3 0  9992
2 46830  97.2044 277.8963 0005007 128.8772 291.7193 15.38855763 96141
NUSAT-14 (HEDY)         
1 46831U 20079E   22207.45522227  .00013745  00000+0  34942-3 0  9996
2 46831  97.2003 277.7467 0008306 148.5505 267.1261 15.39694668 96153
NUSAT-10 (CAROLINE)     
1 46832U 20079F   22207.53566507  .00011928  00000+0  31411-3 0  9994
2 46832  97.2001 277.5407 0007623 159.7055 308.9698 15.38652326 96140
NUSAT-13 (EMMY)         
1 46833U 20079G   22207.45927146  .00011828  00000+0  31355-3 0  9992
2 46833  97.1998 277.4516 0007809 161.1472 255.5331 15.38448785 96133
NUSAT-17 (MARY)         
1 46835U 20079J   22207.50304854  .00012006  00000+0  32049-3 0  9995
2 46835  97.1999 277.2505 0007673 172.8395 282.3985 15.38231066 96128
NUSAT-18 (VERA)         
1 46836U 20079K   22207.46778102  .00012504  00000+0  32830-3 0  9993
2 46836  97.2004 277.6368 0008437 181.3767 234.1058 15.38725587 96149
NUSAT-16 (LISE)         
1 46840U 20079P   22207.43335708  .00012815  00000+0  33685-3 0  9990
2 46840  97.2050 277.7073 0005717 169.7756 245.9043 15.38704126 96134
SENTINEL-6              
1 46984U 20086A   22207.40079911 -.00000061  00000+0  00000+0 0  9997
2 46984  66.0390 208.1257 0008055 265.0299  94.9799 12.80929704 78355
GAOFEN 12-2             
1 48079U 21026A   22207.50310815  .00000311  00000+0  47647-4 0  9991
2 48079  97.8944 197.5482 0001355  77.8110 282.3245 14.80240434 71403
PLEIADES NEO 3          
1 48268U 21034A   22206.74925427 -.00000054  00000+0 -23260-6 0  9999
2 48268  97.8949 280.9279 0001662  93.4453 266.6918 14.81672408 67020
NUSAT-19 (ROSALIND)     
1 48905U 21059AC  22207.39831959  .00005737  00000+0  27154-3 0  9996
2 48905  97.5122 336.9469 0008732 304.2870 141.2640 15.19717910 59988
NUSAT-22 (SOFYA)        
1 48919U 21059AS  22207.43226560  .00013335  00000+0  34856-3 0  9992
2 48919  97.3711 339.1841 0011104 251.7088 179.4161 15.38829575 60523
NUSAT-21 (ELISA)        
1 48920U 21059AT  22207.60816181  .00012825  00000+0  33580-3 0  9993
2 48920  97.3570 338.8374 0011034 265.7403 157.7171 15.38785612 60559
NUSAT-20 (GRACE)        
1 48921U 21059AU  22207.57908742  .00012811  00000+0  33542-3 0  9998
2 48921  97.3689 339.3053 0011346 287.7891 132.8385 15.38783943 60547
PLEIADES NEO 4          
1 49070U 21073E   22207.52586669 -.00000115  00000+0 -80556-5 0  9990
2 49070  97.8942 281.6910 0001612  91.9623 268.1762 14.81672126 50856
LANDSAT 9               
1 49260U 21088A   22206.91369339  .00000157  00000+0  44990-4 0  9997
2 49260  98.2260 276.6595 0001449 105.0047 255.1312 14.57096865 43877
CSG-2                   
1 51444U 22008A   22207.51572987 -.00001119  00000+0 -13412-3 0  9994
2 51444  97.8882  30.6158 0001368  76.6628 283.4701 14.82146599 26000
INS-2TD                 
1 51658U 22013C   22206.65644646  .00004159  00000+0  22648-3 0  9999
2 51658  97.5545 214.5643 0012296  67.1788 293.0741 15.14915092 24452
